NORAD_CAT_ID,OBJECT_NAME,OBJECT_TYPE,EPOCH,MEAN_MOTION,ECCENTRICITY,INCLINATION,RA_OF_ASC_NODE,ARG_OF_PERICENTER,MEAN_ANOMALY,BSTAR,MEAN_MOTION_DOT,MEAN_MOTION_DDOT,TLE_LINE0,TLE_LINE1,TLE_LINE2,SEMIMAJOR_AXIS,PERIOD,APOGEE,PERIGEE,DECAYED
53975.0,STARLINK-5137,PAYLOAD,2023-01-10 07:01:46,15.08841093,0.000254,53.2176,1.6823,19.9501,340.159,3.646e-05,2.92e-06,0.0,0 STARLINK-5137,1 53975U 22125M   23010.29289504  .00000292  00000-0  36460-4 0  9992,2 53975  53.2176   1.6823 0002540  19.9501 340.1590 15.08841093 15187,6917.877,95.437,541.499,537.985,0.0
53975.0,STARLINK-5137,PAYLOAD,2023-01-10 11:47:55,15.0883642,0.0002489,53.217,0.7924,31.2493,328.8646,-3.0213e-05,-7.69e-06,0.0,0 STARLINK-5137,1 53975U 22125M   23010.49162006 -.00000769  00000-0 -30213-4 0  9992,2 53975  53.2170   0.7924 0002489  31.2493 328.8646 15.08836420 15141,6917.891,95.438,541.4780000000002,538.034,0.0
53975.0,STARLINK-5137,PAYLOAD,2023-01-10 16:34:05,15.08840409,0.0002538,53.2175,359.9006,31.1785,328.9357,-7.3066e-07,-3e-06,0.0,0 STARLINK-5137,1 53975U 22125M   23010.69033597 -.00000300  00000-0 -73066-6 0  9992,2 53975  53.2175 359.9006 0002538  31.1785 328.9357 15.08840409 15179,6917.879,95.438,541.5,537.988,0.0
53975.0,STARLINK-5137,PAYLOAD,2023-01-11 05:17:09,15.08844626,0.0002706,53.2178,357.5217,33.1664,326.9498,2.7151e-05,1.44e-06,0.0,0 STARLINK-5137,1 53975U 22125M   23011.22025397  .00000144  00000-0  27151-4 0  9997,2 53975  53.2178 357.5217 0002706  33.1664 326.9498 15.08844626 15253,6917.866,95.437,541.6030000000002,537.859,0.0
53975.0,STARLINK-5137,PAYLOAD,2023-01-11 16:24:50,15.08814735,0.0002504,53.2178,355.4401,36.7098,323.4065,0.00045729,6.992e-05,0.0,0 STARLINK-5137,1 53975U 22125M   23011.68392270  .00006992  00000-0  45729-3 0  9991,2 53975  53.2178 355.4401 0002504  36.7098 323.4065 15.08814735 15396,6917.958000000001,95.439,541.555,538.09,0.0
53975.0,STARLINK-5137,PAYLOAD,2023-01-12 01:57:08,15.08860716,0.0002588,53.2178,353.6552,33.2166,326.8989,0.00016218,2.295e-05,0.0,0 STARLINK-5137,1 53975U 22125M   23012.08135395  .00002295  00000-0  16218-3 0  9992,2 53975  53.2178 353.6552 0002588  33.2166 326.8989 15.08860716 15452,6917.816999999999,95.436,541.472,537.8919999999998,0.0
53975.0,STARLINK-5137,PAYLOAD,2023-01-12 09:54:03,15.08873517,0.000252,53.2186,352.1662,37.4863,322.6304,0.00025692,3.807e-05,0.0,0 STARLINK-5137,1 53975U 22125M   23012.41253781  .00003807  00000-0  25692-3 0  9995,2 53975  53.2186 352.1662 0002520  37.4863 322.6304 15.08873517 15507,6917.778,95.435,541.386,537.9,0.0
53975.0,STARLINK-5137,PAYLOAD,2023-01-13 03:23:23,15.0880772,0.000226,53.2179,348.8971,41.3741,318.7422,-0.0002238,-3.845e-05,0.0,0 STARLINK-5137,1 53975U 22125M   23013.14124196 -.00003845  00000-0 -22380-3 0  9998,2 53975  53.2179 348.8971 0002260  41.3741 318.7422 15.08807720 15616,6917.979,95.44,541.408,538.281,0.0
53975.0,STARLINK-5137,PAYLOAD,2023-01-13 04:58:46,15.08812737,0.0002266,53.218,348.6,40.2308,319.8852,-0.00021869,-3.765e-05,0.0,0 STARLINK-5137,1 53975U 22125M   23013.20748004 -.00003765  00000-0 -21869-3 0  9997,2 53975  53.2180 348.6000 0002266  40.2308 319.8852 15.08812737 15558,6917.964,95.439,541.396,538.261,0.0
53975.0,STARLINK-5137,PAYLOAD,2023-01-13 22:27:59,15.08833546,0.0002298,53.2188,345.3302,37.1716,322.9435,-8.8661e-05,-1.699e-05,0.0,0 STARLINK-5137,1 53975U 22125M   23013.93610890 -.00001699  00000-0 -88661-4 0  9996,2 53975  53.2188 345.3302 0002298  37.1716 322.9435 15.08833546 15663,6917.9,95.438,541.355,538.175,0.0
53975.0,STARLINK-5137,PAYLOAD,2023-01-14 03:14:08,15.08852222,0.0002261,53.2185,344.4369,51.6039,308.5156,5.4042e-06,-2.02e-06,0.0,0 STARLINK-5137,1 53975U 22125M   23014.13481605 -.00000202  00000-0  54042-5 0  9994,2 53975  53.2185 344.4369 0002261  51.6039 308.5156 15.08852222 15765,6917.843000000001,95.437,541.2719999999999,538.144,0.0
53975.0,STARLINK-5137,PAYLOAD,2023-01-14 08:00:16,15.08861565,0.000225,53.2186,343.5438,41.2293,318.8869,5.0071e-05,5.09e-06,0.0,0 STARLINK-5137,1 53975U 22125M   23014.33352723  .00000509  00000-0  50071-4 0  9990,2 53975  53.2186 343.5438 0002250  41.2293 318.8869 15.08861565 15796,6917.814,95.436,541.236,538.123,0.0
53975.0,STARLINK-5137,PAYLOAD,2023-01-14 14:21:50,15.08835928,0.0002633,53.2181,342.3535,50.2659,309.8565,-4.6154e-05,-1.023e-05,0.0,0 STARLINK-5137,1 53975U 22125M   23014.59850421 -.00001023  00000-0 -46154-4 0  9997,2 53975  53.2181 342.3535 0002633  50.2659 309.8565 15.08835928 15839,6917.893,95.438,541.5790000000001,537.936,0.0
53975.0,STARLINK-5137,PAYLOAD,2023-01-15 04:40:19,15.08831638,0.000208,53.2168,339.6781,49.7689,310.3485,0.00031698,4.759e-05,0.0,0 STARLINK-5137,1 53975U 22125M   23015.19467462  .00004759  00000-0  31698-3 0  9996,2 53975  53.2168 339.6781 0002080  49.7689 310.3485 15.08831638 15920,6917.906,95.438,541.21,538.332,0.0
53975.0,STARLINK-5137,PAYLOAD,2023-01-15 07:51:06,15.08837044,0.0002218,53.2166,339.083,53.9004,306.2193,0.0003587,5.425e-05,0.0,0 STARLINK-5137,1 53975U 22125M   23015.32715278  .00005425  00000-0  35870-3 0  9999,2 53975  53.2166 339.0830 0002218  53.9004 306.2193 15.08837044 15879,6917.889,95.438,541.289,538.22,0.0
53975.0,STARLINK-5137,PAYLOAD,2023-01-15 14:12:38,15.08834152,0.0002201999999999,53.2166,337.8927,53.8142,306.3054,0.00022191,3.245e-05,0.0,0 STARLINK-5137,1 53975U 22125M   23015.59211374  .00003245  00000-0  22191-3 0  9996,2 53975  53.2166 337.8927 0002202  53.8142 306.3054 15.08834152 15916,6917.898,95.438,541.2869999999999,538.24,0.0
53975.0,STARLINK-5137,PAYLOAD,2023-01-16 02:55:42,15.08853401,0.0002020999999999,53.2179,335.5167,65.6056,294.5147,0.00012045,1.63e-05,0.0,0 STARLINK-5137,1 53975U 22125M   23016.12202297  .00001630  00000-0  12045-3 0  9993,2 53975  53.2179 335.5167 0002021  65.6056 294.5147 15.08853401 16061,6917.839,95.437,541.1030000000001,538.306,0.0
53975.0,STARLINK-5137,PAYLOAD,2023-01-16 04:31:05,15.08869695,0.0001619,53.2184,335.2209,69.9873,290.1294,0.00032956,4.965e-05,0.0,0 STARLINK-5137,1 53975U 22125M   23016.18825319  .00004965  00000-0  32956-3 0  9992,2 53975  53.2184 335.2209 0001619  69.9873 290.1294 15.08869695 16075,6917.79,95.436,540.775,538.535,0.0
53975.0,STARLINK-5137,PAYLOAD,2023-01-16 14:03:24,15.08841979,0.0001699999999999,53.2175,333.4345,70.9848,289.1328,-0.00012501,-2.277e-05,0.0,0 STARLINK-5137,1 53975U 22125M   23016.58570576 -.00002277  00000-0 -12501-3 0  9998,2 53975  53.2175 333.4345 0001700  70.9848 289.1328 15.08841979 16139,6917.874,95.437,540.915,538.563,0.0
53975.0,STARLINK-5137,PAYLOAD,2023-01-16 23:35:45,15.08812179,0.0001564,53.2161,331.6496,84.4961,275.621,-0.00036331,-6.061e-05,0.0,0 STARLINK-5137,1 53975U 22125M   23016.98316375 -.00006061  00000-0 -36331-3 0  9999,2 53975  53.2161 331.6496 0001564  84.4961 275.6210 15.08812179 16191,6917.965,95.439,540.9119999999999,538.748,0.0
53975.0,STARLINK-5137,PAYLOAD,2023-01-17 05:57:17,15.08825188,0.0001805,53.2146,330.4622,81.548,278.5717,-0.00040446,-6.717e-05,0.0,0 STARLINK-5137,1 53975U 22125M   23017.24812163 -.00006717  00000-0 -40446-3 0  9995,2 53975  53.2146 330.4622 0001805  81.5480 278.5717 15.08825188 16237,6917.926,95.438,541.039,538.5419999999999,0.0
53975.0,STARLINK-5137,PAYLOAD,2023-01-17 13:54:13,15.08830955,0.0001515,53.2166,328.9756,84.0322,276.0842,-0.00021275,-3.671e-05,0.0,0 STARLINK-5137,1 53975U 22125M   23017.57932103 -.00003671  00000-0 -21275-3 0  9993,2 53975  53.2166 328.9756 0001515  84.0322 276.0842 15.08830955 16218,6917.908,95.438,540.821,538.725,0.0
53975.0,STARLINK-5137,PAYLOAD,2023-01-17 20:15:46,15.08826548,0.0001247,53.216,327.7857,88.7413,271.3721,0.00012128,1.642e-05,0.0,0 STARLINK-5137,1 53975U 22125M   23017.84428529  .00001642  00000-0  12128-3 0  9996,2 53975  53.2160 327.7857 0001247  88.7413 271.3721 15.08826548 16256,6917.922,95.438,540.649,538.924,0.0
53975.0,STARLINK-5137,PAYLOAD,2023-01-18 02:37:18,15.08829721,0.0001181,53.2165,326.5969,91.0396,269.0732,0.0002898999999999,4.328e-05,0.0,0 STARLINK-5137,1 53975U 22125M   23018.10924676  .00004328  00000-0  28990-3 0  9998,2 53975  53.2165 326.5969 0001181  91.0396 269.0732 15.08829721 16360,6917.911999999999,95.438,540.594,538.96,0.0
53975.0,STARLINK-5137,PAYLOAD,2023-01-18 05:48:05,15.08843877,0.0001294,53.2165,326.0008,93.6662,266.4479,0.00071392,0.00011094,0.0,0 STARLINK-5137,1 53975U 22125M   23018.24172457  .00011094  00000-0  71392-3 0  9997,2 53975  53.2165 326.0008 0001294  93.6662 266.4479 15.08843877 16387,6917.869000000001,95.437,540.629,538.8380000000001,0.0
53975.0,STARLINK-5137,PAYLOAD,2023-01-18 13:45:00,15.08844911,0.000134,53.2171,324.5128,95.6978,264.4167,0.00071953,0.00011183,0.0,0 STARLINK-5137,1 53975U 22125M   23018.57292765  .00011183  00000-0  71953-3 0  9990,2 53975  53.2171 324.5128 0001340  95.6978 264.4167 15.08844911 16364,6917.865,95.437,540.6569999999999,538.803,0.0
53975.0,STARLINK-5137,PAYLOAD,2023-01-19 02:28:05,15.08863909,8.82e-05,53.2182,322.1352,84.9346,275.1747,0.00077069,0.00012007,0.0,0 STARLINK-5137,1 53975U 22125M   23019.10283792  .00012007  00000-0  77069-3 0  9990,2 53975  53.2182 322.1352 0000882  84.9346 275.1747 15.08863909 16517,6917.807,95.436,540.2819999999999,539.062,0.0
53975.0,STARLINK-5137,PAYLOAD,2023-01-19 13:35:47,15.08858451,0.0001279,53.2166,320.0529,77.919,282.1945,0.00040301,6.135e-05,0.0,0 STARLINK-5137,1 53975U 22125M   23019.56651724  .00006135  00000-0  40301-3 0  9998,2 53975  53.2166 320.0529 0001279  77.9190 282.1945 15.08858451 16516,6917.8240000000005,95.436,540.5740000000001,538.804,0.0
53975.0,STARLINK-5137,PAYLOAD,2023-01-20 02:18:52,15.08836354,0.0001320999999999,53.2169,317.6742,65.9631,294.1499,0.00023819,3.505e-05,0.0,0 STARLINK-5137,1 53975U 22125M   23020.09644328  .00003505  00000-0  23819-3 0  9993,2 53975  53.2169 317.6742 0001321  65.9631 294.1499 15.08836354 16664,6917.892,95.438,540.67,538.8430000000001,0.0
